{
    "links": {
        "self": "http://www.neowsapp.com/rest/v1/neo/54079051?api_key=iIulBulltgU6a56xZRHN4H3l9WmuAYTsLGpBGhQ2"
    },
    "id": "54079051",
    "neo_reference_id": "54079051",
    "name": "(2020 UC6)",
    "designation": "2020 UC6",
    "nasa_jpl_url": "http://ssd.jpl.nasa.gov/sbdb.cgi?sstr=54079051",
    "absolute_magnitude_h": 25.801,
    "estimated_diameter": {
        "kilometers": {
            "estimated_diameter_min": 0.0183804008,
            "estimated_diameter_max": 0.0410998256
        },
        "meters": {
            "estimated_diameter_min": 18.3804007703,
            "estimated_diameter_max": 41.0998255762
        },
        "miles": {
            "estimated_diameter_min": 0.011421048,
            "estimated_diameter_max": 0.0255382397
        },
        "feet": {
            "estimated_diameter_min": 60.3031540634,
            "estimated_diameter_max": 134.8419517433
        }
    },
    "is_potentially_hazardous_asteroid": false,
    "close_approach_data": [
        {
            "close_approach_date": "2020-11-15",
            "close_approach_date_full": "2020-Nov-15 03:04",
            "epoch_date_close_approach": 1605409440000,
            "relative_velocity": {
                "kilometers_per_second": "5.545898585",
                "kilometers_per_hour": "19965.2349059489",
                "miles_per_hour": "12405.6205447547"
            },
            "miss_distance": {
                "astronomical": "0.0924711843",
                "lunar": "35.9712906927",
                "kilometers": "13833492.207657441",
                "miles": "8595733.4683810458"
            },
            "orbiting_body": "Earth"
        }
    ],
    "orbital_data": {
        "orbit_id": "4",
        "orbit_determination_date": "2020-11-23 05:21:42",
        "first_observation_date": "2020-10-20",
        "last_observation_date": "2020-11-23",
        "data_arc_in_days": 34,
        "observations_used": 17,
        "orbit_uncertainty": "7",
        "minimum_orbit_intersection": ".0859491",
        "jupiter_tisserand_invariant": "3.533",
        "epoch_osculation": "2459000.5",
        "eccentricity": ".5012982278640478",
        "semi_major_axis": "2.149086753768982",
        "inclination": "1.645320354229611",
        "ascending_node_longitude": "109.9226555006541",
        "orbital_period": "1150.745665894265",
        "perihelion_distance": "1.071753372578492",
        "perihelion_argument": "297.7252728044159",
        "aphelion_distance": "3.226420134959471",
        "perihelion_time": "2459165.407104233918",
        "mean_anomaly": "308.4103574893106",
        "mean_motion": ".3128406307924153",
        "equinox": "J2000",
        "orbit_class": {
            "orbit_class_type": "AMO",
            "orbit_class_description": "Near-Earth asteroid orbits similar to that of 1221 Amor",
            "orbit_class_range": "1.017 AU < q (perihelion) < 1.3 AU"
        }
    },
    "is_sentry_object": false
}